{
  "type": "FeatureCollection",
  "features": [
    {
      "type": "Feature",
      "properties": {
        "norad_id": 41772,
        "name": "SKYSAT-C5",
        "group": "resource",
        "lat": 72.83036801496094,
        "lon": 4.552800974094701,
        "alt_km": 452.3954644973346,
        "timestamp": "2025-12-10T09:57:44.361761+00:00",
        "meta_object_name": "SKYSAT-C5",
        "meta_object_id": "2016-058C",
        "meta_epoch": "2025-12-10T01:49:06.832128",
        "meta_mean_motion": 15.35285929,
        "meta_eccentricity": 0.0002392,
        "meta_inclination": 97.076,
        "meta_ra_of_asc_node": 27.9328,
        "meta_arg_of_pericenter": 140.8238,
        "meta_mean_anomaly": 219.3179,
        "meta_ephemeris_type": 0,
        "meta_classification_type": "U",
        "meta_norad_cat_id": 41772,
        "meta_element_set_no": 999,
        "meta_rev_at_epoch": 51475,
        "meta_bstar": 0.00041503,
        "meta_mean_motion_dot": 0.00014155,
        "meta_mean_motion_ddot": 0,
        "tle_line1": "1 41772U 16058C   25344.07577352  .00014155  00000+0  41503-3 0  9996",
        "tle_line2": "2 41772  97.0760  27.9328 0002392 140.8238 219.3179 15.35285929514758"
      },
      "geometry": {
        "type": "Point",
        "coordinates": [
          4.552800974094701,
          72.83036801496094
        ]
      }
    },
    {
      "type": "Feature",
      "properties": {
        "norad_id": 41773,
        "name": "SKYSAT-C2",
        "group": "resource",
        "lat": 66.59911076128232,
        "lon": -7.543512055539331,
        "alt_km": 445.25947524785624,
        "timestamp": "2025-12-10T09:57:44.361771+00:00",
        "meta_object_name": "SKYSAT-C2",
        "meta_object_id": "2016-058D",
        "meta_epoch": "2025-12-10T00:17:43.760256",
        "meta_mean_motion": 15.37170286,
        "meta_eccentricity": 0.0004512,
        "meta_inclination": 97.0363,
        "meta_ra_of_asc_node": 8.6544,
        "meta_arg_of_pericenter": 41.483,
        "meta_mean_anomaly": 318.6757,
        "meta_ephemeris_type": 0,
        "meta_classification_type": "U",
        "meta_norad_cat_id": 41773,
        "meta_element_set_no": 999,
        "meta_rev_at_epoch": 51594,
        "meta_bstar": 0.00043902,
        "meta_mean_motion_dot": 0.00015919,
        "meta_mean_motion_ddot": 0,
        "tle_line1": "1 41773U 16058D   25344.01231204  .00015919  00000+0  43902-3 0  9998",
        "tle_line2": "2 41773  97.0363   8.6544 0004512  41.4830 318.6757 15.37170286515942"
      },
      "geometry": {
        "type": "Point",
        "coordinates": [
          -7.543512055539331,
          66.59911076128232
        ]
      }
    },
    {
      "type": "Feature",
      "properties": {
        "norad_id": 41774,
        "name": "SKYSAT-C3",
        "group": "resource",
        "lat": -16.938645384741363,
        "lon": -163.85359603654462,
        "alt_km": 438.6386427204279,
        "timestamp": "2025-12-10T09:57:44.361781+00:00",
        "meta_object_name": "SKYSAT-C3",
        "meta_object_id": "2016-058E",
        "meta_epoch": "2025-12-10T01:20:10.885056",
        "meta_mean_motion": 15.44244525,
        "meta_eccentricity": 0.0001599,
        "meta_inclination": 96.93,
        "meta_ra_of_asc_node": 17.9267,
        "meta_arg_of_pericenter": 105.6106,
        "meta_mean_anomaly": 254.532,
        "meta_ephemeris_type": 0,
        "meta_classification_type": "U",
        "meta_norad_cat_id": 41774,
        "meta_element_set_no": 999,
        "meta_rev_at_epoch": 51684,
        "meta_bstar": 0.00053807,
        "meta_mean_motion_dot": 0.0002469,
        "meta_mean_motion_ddot": 0,
        "tle_line1": "1 41774U 16058E   25344.05568154  .00024690  00000+0  53807-3 0  9991",
        "tle_line2": "2 41774  96.9300  17.9267 0001599 105.6106 254.5320 15.44244525516848"
      },
      "geometry": {
        "type": "Point",
        "coordinates": [
          -163.85359603654462,
          -16.938645384741363
        ]
      }
    },
    {
      "type": "Feature",
      "properties": {
        "norad_id": 41785,
        "name": "ALSAT 1B",
        "group": "resource",
        "lat": -60.092094264190294,
        "lon": 10.057237711126884,
        "alt_km": 668.9969240036826,
        "timestamp": "2025-12-10T09:57:44.361792+00:00",
        "meta_object_name": "ALSAT 1B",
        "meta_object_id": "2016-059C",
        "meta_epoch": "2025-12-10T03:42:51.120576",
        "meta_mean_motion": 14.72071692,
        "meta_eccentricity": 0.0010639,
        "meta_inclination": 97.7813,
        "meta_ra_of_asc_node": 356.0558,
        "meta_arg_of_pericenter": 110.4811,
        "meta_mean_anomaly": 249.754,
        "meta_ephemeris_type": 0,
        "meta_classification_type": "U",
        "meta_norad_cat_id": 41785,
        "meta_element_set_no": 999,
        "meta_rev_at_epoch": 49276,
        "meta_bstar": 0.00014105,
        "meta_mean_motion_dot": 8.4e-06,
        "meta_mean_motion_ddot": 0,
        "tle_line1": "1 41785U 16059C   25344.15475834  .00000840  00000+0  14105-3 0  9996",
        "tle_line2": "2 41785  97.7813 356.0558 0010639 110.4811 249.7540 14.72071692492767"
      },
      "geometry": {
        "type": "Point",
        "coordinates": [
          10.057237711126884,
          -60.092094264190294
        ]
      }
    },
    {
      "type": "Feature",
      "properties": {
        "norad_id": 41787,
        "name": "PATHFINDER 1",
        "group": "resource",
        "lat": 56.32087745367046,
        "lon": -24.595405499352662,
        "alt_km": 646.0761524177151,
        "timestamp": "2025-12-10T09:57:44.361802+00:00",
        "meta_object_name": "PATHFINDER 1",
        "meta_object_id": "2016-059E",
        "meta_epoch": "2025-12-09T12:25:38.745120",
        "meta_mean_motion": 14.67312716,
        "meta_eccentricity": 0.0030058,
        "meta_inclination": 97.8139,
        "meta_ra_of_asc_node": 346.4409,
        "meta_arg_of_pericenter": 90.9607,
        "meta_mean_anomaly": 269.5043,
        "meta_ephemeris_type": 0,
        "meta_classification_type": "U",
        "meta_norad_cat_id": 41787,
        "meta_element_set_no": 999,
        "meta_rev_at_epoch": 49189,
        "meta_bstar": 0.00025681,
        "meta_mean_motion_dot": 1.412e-05,
        "meta_mean_motion_ddot": 0,
        "tle_line1": "1 41787U 16059E   25343.51780955  .00001412  00000+0  25681-3 0  9997",
        "tle_line2": "2 41787  97.8139 346.4409 0030058  90.9607 269.5043 14.67312716491891"
      },
      "geometry": {
        "type": "Point",
        "coordinates": [
          -24.595405499352662,
          56.32087745367046
        ]
      }
    },
    {
      "type": "Feature",
      "properties": {
        "norad_id": 41790,
        "name": "SCATSAT 1",
        "group": "resource",
        "lat": -46.59640530121906,
        "lon": 49.76758003989067,
        "alt_km": 678.8542537917056,
        "timestamp": "2025-12-10T09:57:44.361813+00:00",
        "meta_object_name": "SCATSAT 1",
        "meta_object_id": "2016-059H",
        "meta_epoch": "2025-12-10T03:40:56.846208",
        "meta_mean_motion": 14.78922317,
        "meta_eccentricity": 0.0056147,
        "meta_inclination": 98.1464,
        "meta_ra_of_asc_node": 40.7913,
        "meta_arg_of_pericenter": 136.1603,
        "meta_mean_anomaly": 224.4085,
        "meta_ephemeris_type": 0,
        "meta_classification_type": "U",
        "meta_norad_cat_id": 41790,
        "meta_element_set_no": 999,
        "meta_rev_at_epoch": 7364,
        "meta_bstar": 0.00031976,
        "meta_mean_motion_dot": 2.364e-05,
        "meta_mean_motion_ddot": 0,
        "tle_line1": "1 41790U 16059H   25344.15343572  .00002364  00000+0  31976-3 0  9993",
        "tle_line2": "2 41790  98.1464  40.7913 0056147 136.1603 224.4085 14.78922317 73641"
      },
      "geometry": {
        "type": "Point",
        "coordinates": [
          49.76758003989067,
          -46.59640530121906
        ]
      }
    },
    {
      "type": "Feature",
      "properties": {
        "norad_id": 41875,
        "name": "GOKTURK 1A",
        "group": "resource",
        "lat": 7.358534024072308,
        "lon": 57.87044427392004,
        "alt_km": 686.2971875922285,
        "timestamp": "2025-12-10T09:57:44.361823+00:00",
        "meta_object_name": "GOKTURK 1A",
        "meta_object_id": "2016-073A",
        "meta_epoch": "2025-12-10T04:15:05.429088",
        "meta_mean_motion": 14.6277554,
        "meta_eccentricity": 0.0001259,
        "meta_inclination": 98.1426,
        "meta_ra_of_asc_node": 236.5763,
        "meta_arg_of_pericenter": 77.3041,
        "meta_mean_anomaly": 282.8302,
        "meta_ephemeris_type": 0,
        "meta_classification_type": "U",
        "meta_norad_cat_id": 41875,
        "meta_element_set_no": 999,
        "meta_rev_at_epoch": 48119,
        "meta_bstar": 0.00020307,
        "meta_mean_motion_dot": 9.89e-06,
        "meta_mean_motion_ddot": 0,
        "tle_line1": "1 41875U 16073A   25344.17714617  .00000989  00000+0  20307-3 0  9994",
        "tle_line2": "2 41875  98.1426 236.5763 0001259  77.3041 282.8302 14.62775540481197"
      },
      "geometry": {
        "type": "Point",
        "coordinates": [
          57.87044427392004,
          7.358534024072308
        ]
      }
    }
  ]
}